{
  "norad_id": 59349,
  "name": "STARLINK-31532",
  "history": [
    {
      "epoch": "2026-03-28T14:12:16.680672",
      "apogee_km": 483.377784558671,
      "perigee_km": 483.05530094216283,
      "latitude_deg": 6.676064493279008,
      "longitude_deg": 171.718534079846,
      "semi_major_axis_km": 6861.353542750417,
      "eccentricity": 2.35e-05,
      "inclination_deg": 42.9986,
      "raan_deg": 153.1086,
      "arg_perigee_deg": 116.2983,
      "mean_anomaly_deg": 243.7893,
      "mean_motion_rev_day": 15.27524081
    },
    {
      "epoch": "2026-03-29T04:19:41.400192",
      "apogee_km": 483.38463453383247,
      "perigee_km": 482.80280216891515,
      "latitude_deg": -6.28999016756429,
      "longitude_deg": -131.78733312012628,
      "semi_major_axis_km": 6861.230718351373,
      "eccentricity": 4.24e-05,
      "inclination_deg": 43.0005,
      "raan_deg": 149.7848,
      "arg_perigee_deg": 218.9825,
      "mean_anomaly_deg": 141.0996,
      "mean_motion_rev_day": 15.27565098
    }
  ]
}